GLOBAL-2                
1 43812U 18099BG  26196.06269900  .00001587  00000+0  10464-3 0  9999
2 43812  97.3549 231.4170 0007406  67.1895 293.0116 15.08825093416114
GLOBAL-4                
1 44499U 19054E   26196.91432982  .00038121  00000+0  34942-3 0  9990
2 44499  45.0056  70.3001 0005516 201.4444 158.6224 15.67138233384865
GLOBAL-9                
1 47971U 21023G   26196.92107597  .00011862  00000+0  23140-3 0  9990
2 47971  44.9815  88.8931 0003504 174.3066 185.7865 15.47629155299394
GLOBAL-14               
1 49469U 21106A   26196.92955447  .00016110  00000+0  26519-3 0  9995
2 49469  42.0038 120.0923 0017923 228.9392 130.9904 15.51851761262595
GLOBAL-12               
1 49772U 21115BA  26196.81243279  .00020085  00000+0  29671-3 0  9991
2 49772  53.1940 266.7159 0002892  72.0106 288.1222 15.55356140260352
GLOBAL-13               
1 49773U 21115BB  26196.81159714  .00011490  00000+0  23110-3 0  9994
2 49773  53.1971 278.4021 0000519 153.6810 206.4225 15.47126438260191
GLOBAL-17               
1 49949U 21120A   26196.89928294  .00016551  00000+0  25513-3 0  9992
2 49949  41.9929 238.0085 0013355  96.3653 263.8713 15.53740495259364
GLOBAL-16               
1 49950U 21120B   26196.56650817  .00015629  00000+0  26176-3 0  9992
2 49950  41.9931 244.2767 0011440  83.1889 277.0256 15.51494616259259
GLOBAL-18               
1 52196U 22034B   26196.94325024  .00013416  00000+0  26722-3 0  9993
2 52196  52.9818 119.1026 0004508  27.7715 332.3531 15.47241473241414
GLOBAL-19               
1 55982U 23041B   26196.92450296  .00007625  00000+0  20145-3 0  9994
2 55982  42.0023  34.2193 0009785 222.9817 137.0259 15.38694225186359
GLOBAL-5                
1 55983U 23041C   26196.89226288  .00007950  00000+0  20970-3 0  9990
2 55983  42.0015  33.9334 0008636 218.1255 141.8975 15.38706176186358
