{"fetched_at":"2026-07-16T06:42:56.788Z","source":"https://celestrak.org/NORAD/elements/gp.php?NAME=GLOBAL&FORMAT=JSON","constellation":"blacksky-gen2","records":[{"OBJECT_NAME":"GLOBAL-2","OBJECT_ID":"2018-099BG","EPOCH":"2026-07-15T01:30:17.193600","CLASSIFICATION_TYPE":"U","MEAN_MOTION":15.08825093,"ECCENTRICITY":0.00074068,"INCLINATION":97.3549,"RA_OF_ASC_NODE":231.417,"ARG_OF_PERICENTER":67.1895,"MEAN_ANOMALY":293.0116,"EPHEMERIS_TYPE":0,"NORAD_CAT_ID":43812,"ELEMENT_SET_NO":999,"REV_AT_EPOCH":41611,"BSTAR":0.00010464397,"MEAN_MOTION_DOT":0.00001587,"MEAN_MOTION_DDOT":0},{"OBJECT_NAME":"GLOBAL-4","OBJECT_ID":"2019-054E","EPOCH":"2026-07-15T21:56:38.096448","CLASSIFICATION_TYPE":"U","MEAN_MOTION":15.67138233,"ECCENTRICITY":0.00055163,"INCLINATION":45.0056,"RA_OF_ASC_NODE":70.3001,"ARG_OF_PERICENTER":201.4444,"MEAN_ANOMALY":158.6224,"EPHEMERIS_TYPE":0,"NORAD_CAT_ID":44499,"ELEMENT_SET_NO":999,"REV_AT_EPOCH":38486,"BSTAR":0.00034942181,"MEAN_MOTION_DOT":0.00038121,"MEAN_MOTION_DDOT":0},{"OBJECT_NAME":"GLOBAL-9","OBJECT_ID":"2021-023G","EPOCH":"2026-07-15T22:06:20.963808","CLASSIFICATION_TYPE":"U","MEAN_MOTION":15.47629155,"ECCENTRICITY":0.00035041,"INCLINATION":44.9815,"RA_OF_ASC_NODE":88.8931,"ARG_OF_PERICENTER":174.3066,"MEAN_ANOMALY":185.7865,"EPHEMERIS_TYPE":0,"NORAD_CAT_ID":47971,"ELEMENT_SET_NO":999,"REV_AT_EPOCH":29939,"BSTAR":0.00023140086,"MEAN_MOTION_DOT":0.00011862,"MEAN_MOTION_DDOT":0},{"OBJECT_NAME":"GLOBAL-14","OBJECT_ID":"2021-106A","EPOCH":"2026-07-15T22:18:33.506208","CLASSIFICATION_TYPE":"U","MEAN_MOTION":15.51851761,"ECCENTRICITY":0.00179236,"INCLINATION":42.0038,"RA_OF_ASC_NODE":120.0923,"ARG_OF_PERICENTER":228.9392,"MEAN_ANOMALY":130.9904,"EPHEMERIS_TYPE":0,"NORAD_CAT_ID":49469,"ELEMENT_SET_NO":999,"REV_AT_EPOCH":26259,"BSTAR":0.00026519383,"MEAN_MOTION_DOT":0.0001611,"MEAN_MOTION_DDOT":0},{"OBJECT_NAME":"GLOBAL-12","OBJECT_ID":"2021-115BA","EPOCH":"2026-07-15T19:29:54.193056","CLASSIFICATION_TYPE":"U","MEAN_MOTION":15.5535614,"ECCENTRICITY":0.00028927,"INCLINATION":53.194,"RA_OF_ASC_NODE":266.7159,"ARG_OF_PERICENTER":72.0106,"MEAN_ANOMALY":288.1222,"EPHEMERIS_TYPE":0,"NORAD_CAT_ID":49772,"ELEMENT_SET_NO":999,"REV_AT_EPOCH":26035,"BSTAR":0.00029671015,"MEAN_MOTION_DOT":0.00020085,"MEAN_MOTION_DDOT":0},{"OBJECT_NAME":"GLOBAL-13","OBJECT_ID":"2021-115BB","EPOCH":"2026-07-15T19:28:41.992896","CLASSIFICATION_TYPE":"U","MEAN_MOTION":15.47126438,"ECCENTRICITY":0.00005195,"INCLINATION":53.1971,"RA_OF_ASC_NODE":278.4021,"ARG_OF_PERICENTER":153.681,"MEAN_ANOMALY":206.4225,"EPHEMERIS_TYPE":0,"NORAD_CAT_ID":49773,"ELEMENT_SET_NO":999,"REV_AT_EPOCH":26019,"BSTAR":0.00023109511,"MEAN_MOTION_DOT":0.0001149,"MEAN_MOTION_DDOT":0},{"OBJECT_NAME":"GLOBAL-17","OBJECT_ID":"2021-120A","EPOCH":"2026-07-15T21:34:58.046016","CLASSIFICATION_TYPE":"U","MEAN_MOTION":15.53740495,"ECCENTRICITY":0.00133554,"INCLINATION":41.9929,"RA_OF_ASC_NODE":238.0085,"ARG_OF_PERICENTER":96.3653,"MEAN_ANOMALY":263.8713,"EPHEMERIS_TYPE":0,"NORAD_CAT_ID":49949,"ELEMENT_SET_NO":999,"REV_AT_EPOCH":25936,"BSTAR":0.00025512961,"MEAN_MOTION_DOT":0.00016551,"MEAN_MOTION_DDOT":0},{"OBJECT_NAME":"GLOBAL-16","OBJECT_ID":"2021-120B","EPOCH":"2026-07-15T13:35:46.305888","CLASSIFICATION_TYPE":"U","MEAN_MOTION":15.51494616,"ECCENTRICITY":0.001144,"INCLINATION":41.9931,"RA_OF_ASC_NODE":244.2767,"ARG_OF_PERICENTER":83.1889,"MEAN_ANOMALY":277.0256,"EPHEMERIS_TYPE":0,"NORAD_CAT_ID":49950,"ELEMENT_SET_NO":999,"REV_AT_EPOCH":25925,"BSTAR":0.00026176,"MEAN_MOTION_DOT":0.00015629,"MEAN_MOTION_DDOT":0},{"OBJECT_NAME":"GLOBAL-18","OBJECT_ID":"2022-034B","EPOCH":"2026-07-15T22:38:16.820736","CLASSIFICATION_TYPE":"U","MEAN_MOTION":15.47241473,"ECCENTRICITY":0.00045088,"INCLINATION":52.9818,"RA_OF_ASC_NODE":119.1026,"ARG_OF_PERICENTER":27.7715,"MEAN_ANOMALY":332.3531,"EPHEMERIS_TYPE":0,"NORAD_CAT_ID":52196,"ELEMENT_SET_NO":999,"REV_AT_EPOCH":24141,"BSTAR":0.00026722032,"MEAN_MOTION_DOT":0.00013416,"MEAN_MOTION_DDOT":0},{"OBJECT_NAME":"GLOBAL-19","OBJECT_ID":"2023-041B","EPOCH":"2026-07-15T22:11:17.055744","CLASSIFICATION_TYPE":"U","MEAN_MOTION":15.38694225,"ECCENTRICITY":0.00097852,"INCLINATION":42.0023,"RA_OF_ASC_NODE":34.2193,"ARG_OF_PERICENTER":222.9817,"MEAN_ANOMALY":137.0259,"EPHEMERIS_TYPE":0,"NORAD_CAT_ID":55982,"ELEMENT_SET_NO":999,"REV_AT_EPOCH":18635,"BSTAR":0.00020144832,"MEAN_MOTION_DOT":0.00007625,"MEAN_MOTION_DDOT":0},{"OBJECT_NAME":"GLOBAL-5","OBJECT_ID":"2023-041C","EPOCH":"2026-07-15T21:24:51.512832","CLASSIFICATION_TYPE":"U","MEAN_MOTION":15.38706176,"ECCENTRICITY":0.00086368,"INCLINATION":42.0015,"RA_OF_ASC_NODE":33.9334,"ARG_OF_PERICENTER":218.1255,"MEAN_ANOMALY":141.8975,"EPHEMERIS_TYPE":0,"NORAD_CAT_ID":55983,"ELEMENT_SET_NO":999,"REV_AT_EPOCH":18635,"BSTAR":0.00020970277,"MEAN_MOTION_DOT":0.0000795,"MEAN_MOTION_DDOT":0}]}
